[{"OBJECT_NAME":"KUIPER-00053","OBJECT_ID":"2025-134P","EPOCH":"2026-03-09T15:23:04.985088","MEAN_MOTION":14.79936457,"ECCENTRICITY":7.06e-5,"INCLINATION":51.9009,"RA_OF_ASC_NODE":223.311,"ARG_OF_PERICENTER":157.9369,"MEAN_ANOMALY":202.1623,"EPHEMERIS_TYPE":0,"CLASSIFICATION_TYPE":"U","NORAD_CAT_ID":64513,"ELEMENT_SET_NO":999,"REV_AT_EPOCH":4020,"BSTAR":0.00042309,"MEAN_MOTION_DOT":3.006e-5,"MEAN_MOTION_DDOT":0},{"OBJECT_NAME":"CZ-6A DEB","OBJECT_ID":"2022-151RZ","EPOCH":"2026-03-09T06:45:31.860000","MEAN_MOTION":14.63940535,"ECCENTRICITY":0.00936277,"INCLINATION":99.1051,"RA_OF_ASC_NODE":190.2645,"ARG_OF_PERICENTER":306.6536,"MEAN_ANOMALY":52.6082,"EPHEMERIS_TYPE":0,"CLASSIFICATION_TYPE":"U","NORAD_CAT_ID":54936,"ELEMENT_SET_NO":999,"REV_AT_EPOCH":17489,"BSTAR":0.0020997606,"MEAN_MOTION_DOT":0.00011668,"MEAN_MOTION_DDOT":0}]
